start=new Date('2022-09-07T00:00:00.000Z').valueOf();
sats=[{"RA_OF_ASC_NODE":"9.2391","MEAN_MOTION_DDOT":"0.0000000000000","SITE":"AFETR","PERIOD":"95.410","CENTER_NAME":"EARTH","REV_AT_EPOCH":"1321","ARG_OF_PERICENTER":"89.6155","TLE_LINE2":"2 52862  53.2172   9.2391 0001094  89.6155 276.3024 15.09280372 13215","LAUNCH_DATE":"2022-06-17","EPOCH":"2022-09-06T22:00:00.999936","APOAPSIS":"539.156","ELEMENT_SET_NO":"999","SEMIMAJOR_AXIS":"6916.535","TIME_SYSTEM":"UTC","INCLINATION":"53.2172","NORAD_CAT_ID":"52862","MEAN_ELEMENT_THEORY":"SGP4","OBJECT_NAME":"STARLINK-4010","ECCENTRICITY":"0.00010940","MEAN_MOTION":"15.09280372","REF_FRAME":"TEME","DECAY_DATE":null,"OBJECT_ID":"2022-062AJ","MEAN_MOTION_DOT":"-0.00532196","BSTAR":"-0.03516200000000","GP_ID":"211896739","EPHEMERIS_TYPE":"0","MEAN_ANOMALY":"276.3024","CLASSIFICATION_TYPE":"U","FILE":"3561301","RCS_SIZE":"LARGE","TLE_LINE1":"1 52862U 22062AJ  22249.91667824 -.00532196  00000-0 -35162-1 0  9993","PERIAPSIS":"537.643","OBJECT_TYPE":"PAYLOAD","COUNTRY_CODE":"US"},{"MEAN_MOTION":"15.10014075","ECCENTRICITY":"0.00014200","OBJECT_NAME":"STARLINK-4270","NORAD_CAT_ID":"52863","MEAN_ELEMENT_THEORY":"SGP4","INCLINATION":"53.2169","TIME_SYSTEM":"UTC","ELEMENT_SET_NO":"999","SEMIMAJOR_AXIS":"6914.294","APOAPSIS":"537.141","LAUNCH_DATE":"2022-06-17","EPOCH":"2022-09-06T22:00:00.999936","TLE_LINE2":"2 52863  53.2169   9.2384 0001420  52.7128 352.3806 15.10014075  1305","ARG_OF_PERICENTER":"52.7128","REV_AT_EPOCH":"130","SITE":"AFETR","PERIOD":"95.363","CENTER_NAME":"EARTH","MEAN_MOTION_DDOT":"0.0000000000000","RA_OF_ASC_NODE":"9.2384","COUNTRY_CODE":"US","OBJECT_TYPE":"PAYLOAD","PERIAPSIS":"535.177","TLE_LINE1":"1 52863U 22062AK  22249.91667824 -.01094223  00000-0 -72032-1 0  9996","RCS_SIZE":"LARGE","FILE":"3561419","CLASSIFICATION_TYPE":"U","MEAN_ANOMALY":"352.3806","EPHEMERIS_TYPE":"0","GP_ID":"211923974","BSTAR":"-0.07203200000000","MEAN_MOTION_DOT":"-0.01094223","OBJECT_ID":"2022-062AK","DECAY_DATE":null,"REF_FRAME":"TEME"},{"PERIAPSIS":"536.503","TLE_LINE1":"1 52864U 22062AL  22249.91667824 -.00802411  00000-0 -52828-1 0  9993","OBJECT_TYPE":"PAYLOAD","COUNTRY_CODE":"US","FILE":"3561419","CLASSIFICATION_TYPE":"U","RCS_SIZE":"LARGE","GP_ID":"211924489","BSTAR":"-0.05282800000000","EPHEMERIS_TYPE":"0","MEAN_ANOMALY":"332.0803","REF_FRAME":"TEME","DECAY_DATE":null,"MEAN_MOTION_DOT":"-0.00802411","OBJECT_ID":"2022-062AL","OBJECT_NAME":"STARLINK-4267","MEAN_MOTION":"15.09613007","ECCENTRICITY":"0.00012730","ELEMENT_SET_NO":"999","SEMIMAJOR_AXIS":"6915.519","TIME_SYSTEM":"UTC","MEAN_ELEMENT_THEORY":"SGP4","NORAD_CAT_ID":"52864","INCLINATION":"53.2167","TLE_LINE2":"2 52864  53.2167   9.2383 0001273  53.5015 332.0803 15.09613007  1303","EPOCH":"2022-09-06T22:00:00.999936","LAUNCH_DATE":"2022-06-17","APOAPSIS":"538.264","RA_OF_ASC_NODE":"9.2383","MEAN_MOTION_DDOT":"0.0000000000000","ARG_OF_PERICENTER":"53.5015","REV_AT_EPOCH":"130","PERIOD":"95.389","SITE":"AFETR","CENTER_NAME":"EARTH"},{"MEAN_ANOMALY":"47.4225","EPHEMERIS_TYPE":"0","BSTAR":"-0.06893900000000","GP_ID":"211896254","OBJECT_ID":"2022-062AM","MEAN_MOTION_DOT":"-0.01073779","DECAY_DATE":null,"REF_FRAME":"TEME","COUNTRY_CODE":"US","OBJECT_TYPE":"PAYLOAD","TLE_LINE1":"1 52865U 22062AM  22249.91667824 -.01073779  00000-0 -68939-1 0  9992","PERIAPSIS":"532.529","RCS_SIZE":"LARGE","CLASSIFICATION_TYPE":"U","FILE":"3561301","APOAPSIS":"534.623","EPOCH":"2022-09-06T22:00:00.999936","LAUNCH_DATE":"2022-06-17","TLE_LINE2":"2 52865  53.2172   9.2406 0001515  55.5071  47.4225 15.10860679 13218","PERIOD":"95.310","SITE":"AFETR","CENTER_NAME":"EARTH","REV_AT_EPOCH":"1321","ARG_OF_PERICENTER":"55.5071","MEAN_MOTION_DDOT":"0.0000000000000","RA_OF_ASC_NODE":"9.2406","ECCENTRICITY":"0.00015150","MEAN_MOTION":"15.10860679","OBJECT_NAME":"STARLINK-4274","INCLINATION":"53.2172","MEAN_ELEMENT_THEORY":"SGP4","NORAD_CAT_ID":"52865","TIME_SYSTEM":"UTC","SEMIMAJOR_AXIS":"6911.711","ELEMENT_SET_NO":"999"},{"FILE":"3561419","CLASSIFICATION_TYPE":"U","RCS_SIZE":"LARGE","COUNTRY_CODE":"US","PERIAPSIS":"534.402","TLE_LINE1":"1 52866U 22062AN  22249.91667824 -.01079843  00000-0 -70478-1 0  9992","OBJECT_TYPE":"PAYLOAD","DECAY_DATE":null,"MEAN_MOTION_DOT":"-0.01079843","OBJECT_ID":"2022-062AN","REF_FRAME":"TEME","MEAN_ANOMALY":"6.4840","GP_ID":"211923715","BSTAR":"-0.07047800000000","EPHEMERIS_TYPE":"0","MEAN_ELEMENT_THEORY":"SGP4","NORAD_CAT_ID":"52866","INCLINATION":"53.2172","ELEMENT_SET_NO":"999","SEMIMAJOR_AXIS":"6913.464","TIME_SYSTEM":"UTC","MEAN_MOTION":"15.10285890","ECCENTRICITY":"0.00013410","OBJECT_NAME":"STARLINK-4272","MEAN_MOTION_DDOT":"0.0000000000000","REV_AT_EPOCH":"130","ARG_OF_PERICENTER":"58.0232","CENTER_NAME":"EARTH","SITE":"AFETR","PERIOD":"95.346","RA_OF_ASC_NODE":"9.2403","APOAPSIS":"536.257","TLE_LINE2":"2 52866  53.2172   9.2403 0001341  58.0232   6.4840 15.10285890  1301","LAUNCH_DATE":"2022-06-17","EPOCH":"2022-09-06T22:00:00.999936"},{"REF_FRAME":"TEME","MEAN_MOTION_DOT":"-0.01073294","OBJECT_ID":"2022-062AP","DECAY_DATE":null,"EPHEMERIS_TYPE":"0","GP_ID":"211923562","BSTAR":"-0.06777800000000","MEAN_ANOMALY":"95.8793","RCS_SIZE":"LARGE","FILE":"3561419","CLASSIFICATION_TYPE":"U","OBJECT_TYPE":"PAYLOAD","PERIAPSIS":"530.547","TLE_LINE1":"1 52867U 22062AP  22249.91667824 -.01073294  00000-0 -67778-1 0  9996","COUNTRY_CODE":"US","RA_OF_ASC_NODE":"9.2405","REV_AT_EPOCH":"130","ARG_OF_PERICENTER":"44.8920","SITE":"AFETR","PERIOD":"95.273","CENTER_NAME":"EARTH","MEAN_MOTION_DDOT":"0.0000000000000","EPOCH":"2022-09-06T22:00:00.999936","LAUNCH_DATE":"2022-06-17","TLE_LINE2":"2 52867  53.2172   9.2405 0001780  44.8920  95.8793 15.11450825  1300","APOAPSIS":"533.007","TIME_SYSTEM":"UTC","ELEMENT_SET_NO":"999","SEMIMAJOR_AXIS":"6909.912","MEAN_ELEMENT_THEORY":"SGP4","NORAD_CAT_ID":"52867","INCLINATION":"53.2172","OBJECT_NAME":"STARLINK-4126","MEAN_MOTION":"15.11450825","ECCENTRICITY":"0.00017800"},{"MEAN_MOTION":"15.10823104","ECCENTRICITY":"0.00016400","OBJECT_NAME":"STARLINK-4261","NORAD_CAT_ID":"52868","MEAN_ELEMENT_THEORY":"SGP4","INCLINATION":"53.2175","TIME_SYSTEM":"UTC","SEMIMAJOR_AXIS":"6911.825","ELEMENT_SET_NO":"999","APOAPSIS":"534.824","EPOCH":"2022-09-06T22:00:00.999936","LAUNCH_DATE":"2022-06-17","TLE_LINE2":"2 52868  53.2175   9.2391 0001640  53.8744  44.0516 15.10823104  1309","ARG_OF_PERICENTER":"53.8744","REV_AT_EPOCH":"130","PERIOD":"95.312","SITE":"AFETR","CENTER_NAME":"EARTH","MEAN_MOTION_DDOT":"0.0000000000000","RA_OF_ASC_NODE":"9.2391","COUNTRY_CODE":"US","OBJECT_TYPE":"PAYLOAD","PERIAPSIS":"532.557","TLE_LINE1":"1 52868U 22062AQ  22249.91667824 -.01114072  00000-0 -71811-1 0  9990","RCS_SIZE":"LARGE","FILE":"3561419","CLASSIFICATION_TYPE":"U","MEAN_ANOMALY":"44.0516","EPHEMERIS_TYPE":"0","GP_ID":"211924284","BSTAR":"-0.07181100000000","MEAN_MOTION_DOT":"-0.01114072","OBJECT_ID":"2022-062AQ","DECAY_DATE":null,"REF_FRAME":"TEME"},{"RA_OF_ASC_NODE":"2.5824","ARG_OF_PERICENTER":"40.6935","REV_AT_EPOCH":"130","CENTER_NAME":"EARTH","SITE":"AFETR","PERIOD":"92.705","MEAN_MOTION_DDOT":"0.0000000000000","EPOCH":"2022-09-06T22:00:00.999936","LAUNCH_DATE":"2022-06-17","TLE_LINE2":"2 52869  53.2164   2.5824 0001433  40.6935 342.2138 15.53315138  1304","APOAPSIS":"408.029","TIME_SYSTEM":"UTC","ELEMENT_SET_NO":"999","SEMIMAJOR_AXIS":"6785.192","MEAN_ELEMENT_THEORY":"SGP4","NORAD_CAT_ID":"52869","INCLINATION":"53.2164","OBJECT_NAME":"STARLINK-4266","MEAN_MOTION":"15.53315138","ECCENTRICITY":"0.00014330","REF_FRAME":"TEME","MEAN_MOTION_DOT":"-0.01067756","OBJECT_ID":"2022-062AR","DECAY_DATE":null,"EPHEMERIS_TYPE":"0","GP_ID":"211923821","BSTAR":"-0.01832100000000","MEAN_ANOMALY":"342.2138","RCS_SIZE":"LARGE","FILE":"3561419","CLASSIFICATION_TYPE":"U","OBJECT_TYPE":"PAYLOAD","PERIAPSIS":"406.084","TLE_LINE1":"1 52869U 22062AR  22249.91667824 -.01067756  00000-0 -18321-1 0  9994","COUNTRY_CODE":"US"},{"FILE":"3561419","CLASSIFICATION_TYPE":"U","RCS_SIZE":"LARGE","COUNTRY_CODE":"US","PERIAPSIS":"531.336","TLE_LINE1":"1 52870U 22062AS  22249.91667824 -.01097258  00000-0 -69952-1 0  9992","OBJECT_TYPE":"PAYLOAD","DECAY_DATE":null,"MEAN_MOTION_DOT":"-0.01097258","OBJECT_ID":"2022-062AS","REF_FRAME":"TEME","MEAN_ANOMALY":"80.9198","GP_ID":"211924128","BSTAR":"-0.06995200000000","EPHEMERIS_TYPE":"0","NORAD_CAT_ID":"52870","MEAN_ELEMENT_THEORY":"SGP4","INCLINATION":"53.2177","SEMIMAJOR_AXIS":"6910.758","ELEMENT_SET_NO":"999","TIME_SYSTEM":"UTC","MEAN_MOTION":"15.11173062","ECCENTRICITY":"0.00018630","OBJECT_NAME":"STARLINK-4195","MEAN_MOTION_DDOT":"0.0000000000000","ARG_OF_PERICENTER":"40.9917","REV_AT_EPOCH":"130","PERIOD":"95.290","SITE":"AFETR","CENTER_NAME":"EARTH","RA_OF_ASC_NODE":"9.2391","APOAPSIS":"533.911","TLE_LINE2":"2 52870  53.2177   9.2391 0001863  40.9917  80.9198 15.11173062  1307","LAUNCH_DATE":"2022-06-17","EPOCH":"2022-09-06T22:00:00.999936"},{"MEAN_MOTION":"15.53397949","ECCENTRICITY":"0.00015490","OBJECT_NAME":"STARLINK-4207","MEAN_ELEMENT_THEORY":"SGP4","NORAD_CAT_ID":"52871","INCLINATION":"53.2166","TIME_SYSTEM":"UTC","ELEMENT_SET_NO":"999","SEMIMAJOR_AXIS":"6784.951","APOAPSIS":"407.867","LAUNCH_DATE":"2022-06-17","EPOCH":"2022-09-06T22:00:00.999936","TLE_LINE2":"2 52871  53.2166   2.6151 0001549  31.5862 353.7085 15.53397949  1307","REV_AT_EPOCH":"130","ARG_OF_PERICENTER":"31.5862","SITE":"AFETR","CENTER_NAME":"EARTH","PERIOD":"92.700","MEAN_MOTION_DDOT":"0.0000000000000","RA_OF_ASC_NODE":"2.6151","COUNTRY_CODE":"US","OBJECT_TYPE":"PAYLOAD","PERIAPSIS":"405.765","TLE_LINE1":"1 52871U 22062AT  22249.91667824 -.01149053  00000-0 -19806-1 0  9997","RCS_SIZE":"LARGE","FILE":"3561419","CLASSIFICATION_TYPE":"U","MEAN_ANOMALY":"353.7085","EPHEMERIS_TYPE":"0","GP_ID":"211923975","BSTAR":"-0.01980600000000","MEAN_MOTION_DOT":"-0.01149053","OBJECT_ID":"2022-062AT","DECAY_DATE":null,"REF_FRAME":"TEME"}];
